NORAD_CAT_ID,OBJECT_NAME,OBJECT_TYPE,EPOCH,MEAN_MOTION,ECCENTRICITY,INCLINATION,RA_OF_ASC_NODE,ARG_OF_PERICENTER,MEAN_ANOMALY,BSTAR,MEAN_MOTION_DOT,MEAN_MOTION_DDOT,TLE_LINE0,TLE_LINE1,TLE_LINE2,SEMIMAJOR_AXIS,PERIOD,APOGEE,PERIGEE,DECAYED
51715.0,STARLINK-3533,PAYLOAD,2023-03-07 03:27:43,15.08829669,5.52e-05,53.2137,220.6814,102.6175,257.4879,-0.00051135,-8.414e-05,0.0,0 STARLINK-3533,1 51715U 22016B   23066.14424906 -.00008414  00000-0 -51135-3 0  9994,2 51715  53.2137 220.6814 0000552 102.6175 257.4879 15.08829669 58716,6917.912,95.438,540.159,539.395,0.0
51715.0,STARLINK-3533,PAYLOAD,2023-03-07 16:10:48,15.08850487,9.83e-05,53.2124,218.3036,94.4385,265.6719,0.0021519,0.00034136,0.0,0 STARLINK-3533,1 51715U 22016B   23066.67417570  .00034136  00000-0  21519-2 0  9991,2 51715  53.2124 218.3036 0000983  94.4385 265.6719 15.08850487 58795,6917.848,95.437,540.393,539.033,0.0
51715.0,STARLINK-3533,PAYLOAD,2023-03-08 03:18:30,15.08869899,8.39e-05,53.2148,216.2218,301.3817,58.7093,0.0015513,0.00024507,0.0,0 STARLINK-3533,1 51715U 22016B   23067.13784910  .00024507  00000-0  15513-2 0  9996,2 51715  53.2148 216.2218 0000839 301.3817  58.7093 15.08869899 58861,6917.789,95.436,540.234,539.074,0.0
51715.0,STARLINK-3533,PAYLOAD,2023-03-08 16:01:36,15.08848007,0.0002379,53.2096,213.8425,74.3519,285.7736,0.0013347,0.00021023,0.0,0 STARLINK-3533,1 51715U 22016B   23067.66778136  .00021023  00000-0  13347-2 0  9990,2 51715  53.2096 213.8425 0002379  74.3519 285.7736 15.08848007 58946,6917.856,95.437,541.367,538.075,0.0
51715.0,STARLINK-3533,PAYLOAD,2023-03-09 12:41:37,15.08852084,0.0001904,53.2142,209.9762,78.2663,281.8543,0.0010661,0.00016725,0.0,0 STARLINK-3533,1 51715U 22016B   23068.52890174  .00016725  00000-0  10661-2 0  9992,2 51715  53.2142 209.9762 0001904  78.2663 281.8543 15.08852084 59072,6917.843,95.437,541.026,538.391,0.0
51715.0,STARLINK-3533,PAYLOAD,2023-03-10 09:21:37,15.08849171,0.0001247,53.2118,206.1113,61.4872,298.6245,0.00064781,0.0001004,0.0,0 STARLINK-3533,1 51715U 22016B   23069.39002087  .00010040  00000-0  64781-3 0  9993,2 51715  53.2118 206.1113 0001247  61.4872 298.6245 15.08849171 59203,6917.852,95.437,540.58,538.855,0.0
51715.0,STARLINK-3533,PAYLOAD,2023-03-10 15:43:10,15.08843251,0.0001056,53.2163,204.9189,88.8217,271.2896,0.00016623,2.359e-05,0.0,0 STARLINK-3533,1 51715U 22016B   23069.65497989  .00002359  00000-0  16623-3 0  9997,2 51715  53.2163 204.9189 0001056  88.8217 271.2896 15.08843251 59242,6917.87,95.437,540.466,539.005,0.0
51715.0,STARLINK-3533,PAYLOAD,2023-03-11 09:12:26,15.0882309,5.74e-05,53.2164,201.6519,348.8748,11.2231,-6.2717e-05,-1.285e-05,0.0,0 STARLINK-3533,1 51715U 22016B   23070.38363543 -.00001285  00000-0 -62717-4 0  9992,2 51715  53.2164 201.6519 0000574 348.8748  11.2231 15.08823090 59352,6917.932,95.439,540.194,539.4,0.0
51715.0,STARLINK-3533,PAYLOAD,2023-03-11 13:58:35,15.08833633,0.0001267,53.2176,200.7613,77.0668,283.0465,0.00012068,1.633e-05,0.0,0 STARLINK-3533,1 51715U 22016B   23070.58235351  .00001633  00000-0  12068-3 0  9997,2 51715  53.2176 200.7613 0001267  77.0668 283.0465 15.08833633 59387,6917.9,95.438,540.641,538.888,0.0
51715.0,STARLINK-3533,PAYLOAD,2023-03-11 20:20:07,15.08850764,0.0001204,53.2155,199.5682,117.334,242.7775,0.00055009,8.48e-05,0.0,0 STARLINK-3533,1 51715U 22016B   23070.84730534  .00008480  00000-0  55009-3 0  9998,2 51715  53.2155 199.5682 0001204 117.3340 242.7775 15.08850764 59426,6917.847,95.437,540.545,538.88,0.0
51715.0,STARLINK-3533,PAYLOAD,2023-03-12 12:13:59,15.08842401,0.0001568,53.2142,196.5947,107.2165,252.8999,0.00039583,6.018e-05,0.0,0 STARLINK-3533,1 51715U 22016B   23071.50971328  .00006018  00000-0  39583-3 0  9994,2 51715  53.2142 196.5947 0001568 107.2165 252.8999 15.08842401 59529,6917.873,95.437,540.823,538.653,0.0
51715.0,STARLINK-3533,PAYLOAD,2023-03-12 13:49:22,15.08843994,0.000154,53.2145,196.2975,107.0898,253.0263,0.00047884,7.342e-05,0.0,0 STARLINK-3533,1 51715U 22016B   23071.57595357  .00007342  00000-0  47884-3 0  9999,2 51715  53.2145 196.2975 0001540 107.0898 253.0263 15.08843994 59537,6917.868,95.437,540.799,538.668,0.0
51715.0,STARLINK-3533,PAYLOAD,2023-03-13 13:40:09,15.08852396,0.0001214,53.2143,191.8386,83.3958,276.7172,0.00032915,4.956e-05,0.0,0 STARLINK-3533,1 51715U 22016B   23072.56955081  .00004956  00000-0  32915-3 0  9990,2 51715  53.2143 191.8386 0001214  83.3958 276.7172 15.08852396 59686,6917.842,95.437,540.547,538.868,0.0
51715.0,STARLINK-3533,PAYLOAD,2023-03-13 18:26:18,15.08862491,0.0001396,53.214,190.9448,100.7475,259.3674,0.0006605,0.00010246,0.0,0 STARLINK-3533,1 51715U 22016B   23072.76826542  .00010246  00000-0  66050-3 0  9997,2 51715  53.2140 190.9448 0001396 100.7475 259.3674 15.08862491 59716,6917.812,95.436,540.642,538.711,0.0
51715.0,STARLINK-3533,PAYLOAD,2023-03-14 11:55:32,15.08845865,0.0002546,53.2132,187.673,112.9729,247.1532,5.0063e-05,5.09e-06,0.0,0 STARLINK-3533,1 51715U 22016B   23073.49690764  .00000509  00000-0  50063-4 0  9992,2 51715  53.2132 187.6730 0002546 112.9729 247.1532 15.08845865 59825,6917.862,95.437,541.489,537.966,0.0
51715.0,STARLINK-3533,PAYLOAD,2023-03-15 11:46:19,15.08867167,0.0001628,53.2156,183.216,87.7998,272.318,0.00084667,0.00013222,0.0,0 STARLINK-3533,1 51715U 22016B   23074.49050063  .00013222  00000-0  84667-3 0  9997,2 51715  53.2156 183.2160 0001628  87.7998 272.3180 15.08867167 59971,6917.797,95.436,540.789,538.536,0.0
51715.0,STARLINK-3533,PAYLOAD,2023-03-16 11:37:06,15.08827081,0.0001343,53.2161,178.7559,82.2439,277.8706,-0.00034094,-5.708e-05,0.0,0 STARLINK-3533,1 51715U 22016B   23075.48410317 -.00005708  00000-0 -34094-3 0  9990,2 51715  53.2161 178.7559 0001343  82.2439 277.8706 15.08827081 60126,6917.92,95.438,540.714,538.856,0.0
51715.0,STARLINK-3533,PAYLOAD,2023-03-17 11:27:55,15.08819361,0.0001219,53.2145,174.2942,91.5035,268.6097,0.00035757,5.404e-05,0.0,0 STARLINK-3533,1 51715U 22016B   23076.47772164  .00005404  00000-0  35757-3 0  9999,2 51715  53.2145 174.2942 0001219  91.5035 268.6097 15.08819361 60271,6917.943,95.439,540.652,538.965,0.0
51715.0,STARLINK-3533,PAYLOAD,2023-03-18 12:54:04,15.08876356,0.0001204,53.2151,169.5366,90.7723,269.3407,0.0013017,0.0002051,0.0,0 STARLINK-3533,1 51715U 22016B   23077.53755048  .00020510  00000-0  13017-2 0  9998,2 51715  53.2151 169.5366 0001204  90.7723 269.3407 15.08876356 60432,6917.769,95.435,540.467,538.801,0.0
51715.0,STARLINK-3533,PAYLOAD,2023-03-18 22:26:23,15.08856803,0.0001443,53.2149,167.7524,97.5641,262.5515,5.3401e-05,5.62e-06,0.0,0 STARLINK-3533,1 51715U 22016B   23077.93498859  .00000562  00000-0  53401-4 0  9994,2 51715  53.2149 167.7524 0001443  97.5641 262.5515 15.08856803 60490,6917.829,95.436,540.692,538.696,0.0
51715.0,STARLINK-3533,PAYLOAD,2023-03-19 06:23:18,15.08850056,0.0001774,53.2156,166.2662,110.8132,249.305,0.00042447,6.476e-05,0.0,0 STARLINK-3533,1 51715U 22016B   23078.26618805  .00006476  00000-0  42447-3 0  9993,2 51715  53.2156 166.2662 0001774 110.8132 249.3050 15.08850056 60543,6917.85,95.437,540.942,538.487,0.0
51715.0,STARLINK-3533,PAYLOAD,2023-03-19 12:44:51,15.08858507,0.0001408,53.215,165.0761,105.1675,254.9473,0.0017201,0.00027207,0.0,0 STARLINK-3533,1 51715U 22016B   23078.53114642  .00027207  00000-0  17201-2 0  9997,2 51715  53.2150 165.0761 0001408 105.1675 254.9473 15.08858507 60581,6917.824,95.436,540.663,538.715,0.0
51715.0,STARLINK-3533,PAYLOAD,2023-03-19 15:55:37,15.08863824,0.0001149,53.215,164.4805,103.9159,256.1961,0.002127,0.00033748,0.0,0 STARLINK-3533,1 51715U 22016B   23078.66362474  .00033748  00000-0  21270-2 0  9997,2 51715  53.2150 164.4805 0001149 103.9159 256.1961 15.08863824 60605,6917.808,95.436,540.467,538.878,0.0
51715.0,STARLINK-3533,PAYLOAD,2023-03-20 04:38:42,15.08854448,0.0002119,53.215,162.1008,102.9559,257.167,0.0013354,0.00021037,0.0,0 STARLINK-3533,1 51715U 22016B   23079.19354842  .00021037  00000-0  13354-2 0  9998,2 51715  53.2150 162.1008 0002119 102.9559 257.1670 15.08854448 60684,6917.836,95.437,541.167,538.235,0.0
51715.0,STARLINK-3533,PAYLOAD,2023-03-20 11:00:15,15.08845556,0.0001569,53.2152,160.9107,108.3813,251.735,0.00040197,6.116e-05,0.0,0 STARLINK-3533,1 51715U 22016B   23079.45850808  .00006116  00000-0  40197-3 0  9997,2 51715  53.2152 160.9107 0001569 108.3813 251.7350 15.08845556 60723,6917.863,95.437,540.814,538.643,0.0
51715.0,STARLINK-3533,PAYLOAD,2023-03-20 22:07:57,15.08838743,0.0001441,53.2144,158.83,98.7639,261.3516,0.00026213,3.886e-05,0.0,0 STARLINK-3533,1 51715U 22016B   23079.92219043  .00003886  00000-0  26213-3 0  9993,2 51715  53.2144 158.8300 0001441  98.7639 261.3516 15.08838743 60790,6917.884,95.438,540.746,538.752,0.0
51715.0,STARLINK-3533,PAYLOAD,2023-03-21 12:26:26,15.08825516,0.0001529,53.2151,156.1535,99.9262,260.1902,-0.00013554,-2.444e-05,0.0,0 STARLINK-3533,1 51715U 22016B   23080.51835798 -.00002444  00000-0 -13554-3 0  9996,2 51715  53.2151 156.1535 0001529  99.9262 260.1902 15.08825516 60881,6917.925,95.438,540.847,538.732,0.0
51715.0,STARLINK-3533,PAYLOAD,2023-03-21 21:58:44,15.08834022,0.0001174,53.2147,154.37,105.6817,254.4304,-3.3876e-05,-8.27e-06,0.0,0 STARLINK-3533,1 51715U 22016B   23080.91579690 -.00000827  00000-0 -33876-4 0  9999,2 51715  53.2147 154.3700 0001174 105.6817 254.4304 15.08834022 60948,6917.899,95.438,540.576,538.952,0.0
51715.0,STARLINK-3533,PAYLOAD,2023-03-22 12:17:13,15.08847037,0.0001377,53.2144,151.6948,94.911,265.2039,0.00040034,6.09e-05,0.0,0 STARLINK-3533,1 51715U 22016B   23081.51195732  .00006090  00000-0  40034-3 0  9996,2 51715  53.2144 151.6948 0001377  94.9110 265.2039 15.08847037 61036,6917.859,95.437,540.676,538.771,0.0
51715.0,STARLINK-3533,PAYLOAD,2023-03-22 17:03:22,15.08852314,0.0001352,53.2145,150.8024,96.538,263.5766,0.00047593,7.297e-05,0.0,0 STARLINK-3533,1 51715U 22016B   23081.71067531  .00007297  00000-0  47593-3 0  9990,2 51715  53.2145 150.8024 0001352  96.5380 263.5766 15.08852314 61068,6917.843,95.437,540.643,538.772,0.0
